[{"OBJECT_NAME":"STARLINK-36763","OBJECT_ID":"2026-036C","EPOCH":"2026-03-12T22:00:01.999584","MEAN_MOTION":15.72562055,"ECCENTRICITY":0.00013824,"INCLINATION":42.999,"RA_OF_ASC_NODE":230.1087,"ARG_OF_PERICENTER":273.0904,"MEAN_ANOMALY":331.8687,"EPHEMERIS_TYPE":0,"CLASSIFICATION_TYPE":"U","NORAD_CAT_ID":67906,"ELEMENT_SET_NO":999,"REV_AT_EPOCH":416,"BSTAR":-0.01549478,"MEAN_MOTION_DOT":-0.01863049,"MEAN_MOTION_DDOT":0},{"OBJECT_NAME":"STARLINK-36742","OBJECT_ID":"2026-036D","EPOCH":"2026-03-12T22:00:01.999584","MEAN_MOTION":15.71627117,"ECCENTRICITY":0.0001585,"INCLINATION":42.999,"RA_OF_ASC_NODE":230.1175,"ARG_OF_PERICENTER":273.7646,"MEAN_ANOMALY":327.646,"EPHEMERIS_TYPE":0,"CLASSIFICATION_TYPE":"U","NORAD_CAT_ID":67907,"ELEMENT_SET_NO":999,"REV_AT_EPOCH":416,"BSTAR":-0.015953568,"MEAN_MOTION_DOT":-0.01845427,"MEAN_MOTION_DDOT":0},{"OBJECT_NAME":"STARLINK-36827","OBJECT_ID":"2026-036E","EPOCH":"2026-03-12T19:18:33.242688","MEAN_MOTION":15.77096314,"ECCENTRICITY":0.00020646,"INCLINATION":42.999,"RA_OF_ASC_NODE":230.7075,"ARG_OF_PERICENTER":278.8111,"MEAN_ANOMALY":81.2525,"EPHEMERIS_TYPE":0,"CLASSIFICATION_TYPE":"U","NORAD_CAT_ID":67908,"ELEMENT_SET_NO":999,"REV_AT_EPOCH":416,"BSTAR":-0.0048949922,"MEAN_MOTION_DOT":-0.00754653,"MEAN_MOTION_DDOT":0},{"OBJECT_NAME":"STARLINK-36822","OBJECT_ID":"2026-036F","EPOCH":"2026-03-12T22:00:01.999584","MEAN_MOTION":15.72189773,"ECCENTRICITY":0.00015353,"INCLINATION":42.9991,"RA_OF_ASC_NODE":230.0849,"ARG_OF_PERICENTER":278.6478,"MEAN_ANOMALY":336.062,"EPHEMERIS_TYPE":0,"CLASSIFICATION_TYPE":"U","NORAD_CAT_ID":67909,"ELEMENT_SET_NO":999,"REV_AT_EPOCH":416,"BSTAR":-0.015712909,"MEAN_MOTION_DOT":-0.01859813,"MEAN_MOTION_DDOT":0},{"OBJECT_NAME":"STARLINK-36847","OBJECT_ID":"2026-036G","EPOCH":"2026-03-12T22:00:01.999584","MEAN_MOTION":15.71329484,"ECCENTRICITY":0.00015186,"INCLINATION":42.9991,"RA_OF_ASC_NODE":230.0927,"ARG_OF_PERICENTER":278.4513,"MEAN_ANOMALY":332.9388,"EPHEMERIS_TYPE":0,"CLASSIFICATION_TYPE":"U","NORAD_CAT_ID":67910,"ELEMENT_SET_NO":999,"REV_AT_EPOCH":416,"BSTAR":-0.016301307,"MEAN_MOTION_DOT":-0.01859554,"MEAN_MOTION_DDOT":0},{"OBJECT_NAME":"STARLINK-36736","OBJECT_ID":"2026-036H","EPOCH":"2026-03-12T22:00:01.999584","MEAN_MOTION":15.79620879,"ECCENTRICITY":0.00016642,"INCLINATION":42.9995,"RA_OF_ASC_NODE":229.9662,"ARG_OF_PERICENTER":278.4858,"MEAN_ANOMALY":23.7612,"EPHEMERIS_TYPE":0,"CLASSIFICATION_TYPE":"U","NORAD_CAT_ID":67911,"ELEMENT_SET_NO":999,"REV_AT_EPOCH":416,"BSTAR":-0.01134264,"MEAN_MOTION_DOT":-0.01869131,"MEAN_MOTION_DDOT":0},{"OBJECT_NAME":"STARLINK-36676","OBJECT_ID":"2026-036J","EPOCH":"2026-03-12T19:12:51.355296","MEAN_MOTION":15.78468225,"ECCENTRICITY":0.00017254,"INCLINATION":42.9986,"RA_OF_ASC_NODE":230.6763,"ARG_OF_PERICENTER":304.977,"MEAN_ANOMALY":55.0938,"EPHEMERIS_TYPE":0,"CLASSIFICATION_TYPE":"U","NORAD_CAT_ID":67912,"ELEMENT_SET_NO":999,"REV_AT_EPOCH":416,"BSTAR":-0.0045552924,"MEAN_MOTION_DOT":-0.00747719,"MEAN_MOTION_DDOT":0},{"OBJECT_NAME":"STARLINK-36690","OBJECT_ID":"2026-036K","EPOCH":"2026-03-12T19:09:29.154240","MEAN_MOTION":15.82949638,"ECCENTRICITY":0.00181998,"INCLINATION":43.0008,"RA_OF_ASC_NODE":230.6626,"ARG_OF_PERICENTER":279.9239,"MEAN_ANOMALY":79.9578,"EPHEMERIS_TYPE":0,"CLASSIFICATION_TYPE":"U","NORAD_CAT_ID":67913,"ELEMENT_SET_NO":999,"REV_AT_EPOCH":416,"BSTAR":0.0019756609,"MEAN_MOTION_DOT":0.00462609,"MEAN_MOTION_DDOT":0},{"OBJECT_NAME":"STARLINK-36724","OBJECT_ID":"2026-036L","EPOCH":"2026-03-12T20:40:22.798272","MEAN_MOTION":15.7879495,"ECCENTRICITY":0.00029262,"INCLINATION":42.9982,"RA_OF_ASC_NODE":230.2691,"ARG_OF_PERICENTER":303.9718,"MEAN_ANOMALY":56.0874,"EPHEMERIS_TYPE":0,"CLASSIFICATION_TYPE":"U","NORAD_CAT_ID":67914,"ELEMENT_SET_NO":999,"REV_AT_EPOCH":417,"BSTAR":-0.0027301478,"MEAN_MOTION_DOT":-0.004701,"MEAN_MOTION_DDOT":0},{"OBJECT_NAME":"STARLINK-36723","OBJECT_ID":"2026-036M","EPOCH":"2026-03-12T22:00:01.999584","MEAN_MOTION":15.79277232,"ECCENTRICITY":0.00015515,"INCLINATION":42.9992,"RA_OF_ASC_NODE":229.936,"ARG_OF_PERICENTER":275.3225,"MEAN_ANOMALY":38.9972,"EPHEMERIS_TYPE":0,"CLASSIFICATION_TYPE":"U","NORAD_CAT_ID":67915,"ELEMENT_SET_NO":999,"REV_AT_EPOCH":416,"BSTAR":-0.011503894,"MEAN_MOTION_DOT":-0.0186618,"MEAN_MOTION_DDOT":0},{"OBJECT_NAME":"STARLINK-36721","OBJECT_ID":"2026-036N","EPOCH":"2026-03-12T20:38:20.623488","MEAN_MOTION":15.80036897,"ECCENTRICITY":0.0002814,"INCLINATION":42.9982,"RA_OF_ASC_NODE":230.2595,"ARG_OF_PERICENTER":242.9338,"MEAN_ANOMALY":117.1246,"EPHEMERIS_TYPE":0,"CLASSIFICATION_TYPE":"U","NORAD_CAT_ID":67916,"ELEMENT_SET_NO":999,"REV_AT_EPOCH":417,"BSTAR":-0.0047456606,"MEAN_MOTION_DOT":-0.00829466,"MEAN_MOTION_DDOT":0},{"OBJECT_NAME":"STARLINK-36722","OBJECT_ID":"2026-036P","EPOCH":"2026-03-12T20:36:37.759968","MEAN_MOTION":15.82084735,"ECCENTRICITY":0.00018168,"INCLINATION":42.9987,"RA_OF_ASC_NODE":230.2473,"ARG_OF_PERICENTER":289.8999,"MEAN_ANOMALY":70.1677,"EPHEMERIS_TYPE":0,"CLASSIFICATION_TYPE":"U","NORAD_CAT_ID":67917,"ELEMENT_SET_NO":999,"REV_AT_EPOCH":417,"BSTAR":0.00071413887,"MEAN_MOTION_DOT":0.00153018,"MEAN_MOTION_DDOT":0},{"OBJECT_NAME":"STARLINK-36341","OBJECT_ID":"2026-036Q","EPOCH":"2026-03-12T22:00:01.999584","MEAN_MOTION":15.6481853,"ECCENTRICITY":0.00014382,"INCLINATION":42.9996,"RA_OF_ASC_NODE":230.1898,"ARG_OF_PERICENTER":277.1275,"MEAN_ANOMALY":294.6916,"EPHEMERIS_TYPE":0,"CLASSIFICATION_TYPE":"U","NORAD_CAT_ID":67918,"ELEMENT_SET_NO":999,"REV_AT_EPOCH":416,"BSTAR":-0.021227828,"MEAN_MOTION_DOT":-0.01887124,"MEAN_MOTION_DDOT":0},{"OBJECT_NAME":"STARLINK-36663","OBJECT_ID":"2026-036R","EPOCH":"2026-03-12T19:05:03.264288","MEAN_MOTION":15.80899755,"ECCENTRICITY":0.00051846,"INCLINATION":42.9984,"RA_OF_ASC_NODE":230.6314,"ARG_OF_PERICENTER":343.1884,"MEAN_ANOMALY":16.8815,"EPHEMERIS_TYPE":0,"CLASSIFICATION_TYPE":"U","NORAD_CAT_ID":67919,"ELEMENT_SET_NO":999,"REV_AT_EPOCH":416,"BSTAR":0.0023900892,"MEAN_MOTION_DOT":0.00506569,"MEAN_MOTION_DDOT":0},{"OBJECT_NAME":"STARLINK-36375","OBJECT_ID":"2026-036S","EPOCH":"2026-03-12T22:00:01.999584","MEAN_MOTION":15.73748123,"ECCENTRICITY":0.00016441,"INCLINATION":42.9991,"RA_OF_ASC_NODE":229.9362,"ARG_OF_PERICENTER":276.7093,"MEAN_ANOMALY":37.1563,"EPHEMERIS_TYPE":0,"CLASSIFICATION_TYPE":"U","NORAD_CAT_ID":67920,"ELEMENT_SET_NO":999,"REV_AT_EPOCH":416,"BSTAR":-0.014649614,"MEAN_MOTION_DOT":-0.01855947,"MEAN_MOTION_DDOT":0},{"OBJECT_NAME":"STARLINK-36405","OBJECT_ID":"2026-036T","EPOCH":"2026-03-12T22:00:01.999584","MEAN_MOTION":15.65036802,"ECCENTRICITY":0.00014886,"INCLINATION":42.9993,"RA_OF_ASC_NODE":230.1613,"ARG_OF_PERICENTER":275.4197,"MEAN_ANOMALY":308.0361,"EPHEMERIS_TYPE":0,"CLASSIFICATION_TYPE":"U","NORAD_CAT_ID":67921,"ELEMENT_SET_NO":999,"REV_AT_EPOCH":416,"BSTAR":-0.021141673,"MEAN_MOTION_DOT":-0.01895088,"MEAN_MOTION_DDOT":0}]
